#aV2007  1 30  0  0   .00000000      96 DD+AD WGS84 FIT  NGA
## 1412 172800.00000000   900.00000000 54130  .0000000000000
+   30     1  2  3  4  5  6  7  8  9 10 11 12 13 14 16 17 18
+         19 20 21 22 23 24 25 26 27 28 29 30 31  0  0  0  0
+          0  0  0  0  0  0  0  0  0  0  0  0  0  0  0  0  0
+          0  0  0  0  0  0  0  0  0  0  0  0  0  0  0  0  0
+          0  0  0  0  0  0  0  0  0  0  0  0  0  0  0  0  0
++         0  0  0  0  0  0  0  0  0  0  0  0  0  0  0  0  0
++         0  0  0  0  0  0  0  0  0  0  0  0  0  0  0  0  0
++         0  0  0  0  0  0  0  0  0  0  0  0  0  0  0  0  0
++         0  0  0  0  0  0  0  0  0  0  0  0  0  0  0  0  0
++         0  0  0  0  0  0  0  0  0  0  0  0  0  0  0  0  0
%c cc cc ccc ccc cccc cccc cccc cccc ccccc ccccc ccccc ccccc
%c cc cc ccc ccc cccc cccc cccc cccc ccccc ccccc ccccc ccccc
%f  0.0000000  0.000000000  0.00000000000  0.000000000000000
%f  0.0000000  0.000000000  0.00000000000  0.000000000000000
%i    0    0    0    0      0      0      0      0         0
%i    0    0    0    0      0      0      0      0         0
/*      NGA, ST. LOUIS,MO.                                  
/*   EPHEMERIS COMPUTED FROM  3 DAYS OF DATA                
/* CCCCCCCCCCCCCCCCCCCCCCCCCCCCCCCCCCCCCCCCCCCCCCCCCCCCCCCCC
/* CCCCCCCCCCCCCCCCCCCCCCCCCCCCCCCCCCCCCCCCCCCCCCCCCCCCCCCCC
*  2007  1 30  4  0   .00000000                                                 
P  1 -13634.540777 -13771.306073  18400.868373    104.584464                    
V  1  22806.255495   1678.811207  18305.827135       .023419                    
P  2  13918.853946  22540.684045  -3555.871473     77.815654                    
V  2   -807.976815   5081.621011  30862.916411       .034026                    
P  3 -17730.316226 -11799.500548 -16268.585367      5.737231                    
V  3  20205.021533  -2789.428015 -19920.368937       .060200                    
P  4   3821.168003  24296.944231   9477.336137       .896421                    
V  4  -8118.520626  -9742.302184  28424.431702       .024872                    
P  5  18396.053541  -6185.152169  17839.295234     24.341446                    
V  5  -9546.736748  21281.860889  17154.417206       .099071                    
P  6  22987.559708  -7324.161855 -10977.450457    423.221109                    
V  6  14135.175479   3674.384956  26643.485717      -.252131                    
P  7  20916.630088  -9466.384519 -13090.049059    431.706533                    
V  7  17172.899524   3069.091749  24504.276089      -.114953                    
P  8  -4378.601201  19500.764821 -17386.884616    -94.896050                    
V  8 -10218.851647 -19525.309813 -19881.282622      -.013998                    
P  9  18059.714502   9232.743889  16693.016657     55.333605                    
V  9   8921.508215  20421.982218 -20021.626363       .016924                    
P 10   8868.660865  12908.025777 -21511.860235     96.665952                    
V 10 -16228.053055  21696.631834   6676.958227       .005473                    
P 11 -19979.356068  -4886.805193  16845.178972      5.428193                    
V 11 -10314.297694 -19314.870160 -17439.553466       .013678                    
P 12  18499.983682  -4137.547312  18693.339389    -56.628817                    
V 12 -11930.594964  20330.522529  16440.407073       .049601                    
P 13 -21118.814495   7262.116254 -14431.082756    138.087963                    
V 13 -17892.938610  -3211.202888  24766.136163       .040430                    
P 14   3917.952874 -14300.168268  22117.049959      6.417975                    
V 14  27676.607350   2678.110047  -3248.169016       .013071                    
P 16  -3664.054341 -17966.700649 -19084.947415    117.333430                    
V 16  15100.035086 -19274.532492  15307.606224       .037382                    
P 17  -3994.581849  14890.065387  21615.728926     80.628292                    
V 17 -27364.010512  -2436.271287  -3493.210283      -.013165                    
P 18  17359.016350 -19576.675720  -3284.692368   -253.860526                    
V 18     17.592387   5452.013906 -31468.523674       .000668                    
P 19 -24146.973153  -8420.023214  -7262.645384     62.386001                    
V 19   9606.333213  -1430.251267 -29794.586200       .042850                    
P 20 -19001.626237   6686.235252  17193.629610    -22.156130                    
V 20  10575.998867 -19441.965652  19185.379907      -.001384                    
P 21   9762.638743 -14077.172991 -20061.534922     69.892218                    
V 21  11878.366501  23073.784499 -10915.416927       .010949                    
P 22  10048.437386 -23193.774202   8285.038801    164.759744                    
V 22   8459.693864  -6557.104690 -29188.351242       .021720                    
P 23 -26347.149603    931.693895  -4073.839100    147.876399                    
V 23  -4865.509137  -2670.520524  31275.150383       .015236                    
P 24  17349.111513   9709.403063 -17299.204312     72.987545                    
V 24   6929.774456  21432.284522  19066.879430       .032381                    
P 25 -12593.924924 -23260.426339   1886.967040    366.260845                    
V 25   3575.996802     86.175751  31653.802064      -.137428                    
P 26  23650.976336   8770.329703  -9614.303669    -18.546016                    
V 26 -11452.181136    -60.088355 -28957.349477      -.180916                    
P 27 -10002.065908  11878.961468 -20874.125851     91.280846                    
V 27 -14466.180657 -24043.120342  -6817.728668       .021253                    
P 28 -12285.053736  22928.474038   4636.232201      8.476406                    
V 28  -5654.987894   2798.866449 -31272.367137      -.009070                    
P 29  21136.468807   9879.989641 -12786.167713    333.212219                    
V 29 -16486.342989    293.736266 -26223.575336       .133229                    
P 30  18561.414491 -15635.745219  10354.197532     23.983266                    
V 30  -4651.510584  13197.403285  27575.939761       .010764                    
P 31  -6312.011948 -24720.496254   7482.568789      2.459617                    
V 31   6461.620466   7131.410808  29859.489179       .045869                    
EOF
